[{"OBJECT_NAME":"YAOGAN-39 02C","OBJECT_ID":"2023-145E","EPOCH":"2026-03-09T14:30:01.798272","MEAN_MOTION":15.16731144,"ECCENTRICITY":0.000723,"INCLINATION":34.9932,"RA_OF_ASC_NODE":125.2072,"ARG_OF_PERICENTER":244.0478,"MEAN_ANOMALY":115.949,"EPHEMERIS_TYPE":0,"CLASSIFICATION_TYPE":"U","NORAD_CAT_ID":57890,"ELEMENT_SET_NO":999,"REV_AT_EPOCH":13772,"BSTAR":0.0004102,"MEAN_MOTION_DOT":8.21e-5,"MEAN_MOTION_DDOT":0},{"OBJECT_NAME":"OBJECT A","OBJECT_ID":"2025-055A","EPOCH":"2026-03-09T22:20:06.055296","MEAN_MOTION":15.1489582,"ECCENTRICITY":0.00171574,"INCLINATION":97.6376,"RA_OF_ASC_NODE":208.1396,"ARG_OF_PERICENTER":127.0611,"MEAN_ANOMALY":233.2193,"EPHEMERIS_TYPE":0,"CLASSIFICATION_TYPE":"U","NORAD_CAT_ID":63291,"ELEMENT_SET_NO":999,"REV_AT_EPOCH":5401,"BSTAR":0.00072348746,"MEAN_MOTION_DOT":0.00013464,"MEAN_MOTION_DDOT":0}]
